[{"OBJECT_NAME":"ONEWEB-0720","OBJECT_ID":"2023-029AR","EPOCH":"2026-03-03T17:42:59.559840","MEAN_MOTION":13.19725114,"ECCENTRICITY":0.0001675,"INCLINATION":87.9237,"RA_OF_ASC_NODE":325.9857,"ARG_OF_PERICENTER":90.7288,"MEAN_ANOMALY":269.4036,"EPHEMERIS_TYPE":0,"CLASSIFICATION_TYPE":"U","NORAD_CAT_ID":55835,"ELEMENT_SET_NO":999,"REV_AT_EPOCH":14493,"BSTAR":8.0442e-5,"MEAN_MOTION_DOT":4.5e-7,"MEAN_MOTION_DDOT":0},{"OBJECT_NAME":"ONEWEB-0537","OBJECT_ID":"2023-043A","EPOCH":"2026-03-03T13:24:40.724352","MEAN_MOTION":13.16593976,"ECCENTRICITY":0.0001699,"INCLINATION":87.8999,"RA_OF_ASC_NODE":249.7847,"ARG_OF_PERICENTER":88.8375,"MEAN_ANOMALY":271.2951,"EPHEMERIS_TYPE":0,"CLASSIFICATION_TYPE":"U","NORAD_CAT_ID":56046,"ELEMENT_SET_NO":999,"REV_AT_EPOCH":14506,"BSTAR":-0.00065415,"MEAN_MOTION_DOT":-2.37e-6,"MEAN_MOTION_DDOT":0},{"OBJECT_NAME":"ONEWEB-0538","OBJECT_ID":"2023-043B","EPOCH":"2026-03-03T13:15:34.919136","MEAN_MOTION":13.16593337,"ECCENTRICITY":0.0001872,"INCLINATION":87.8997,"RA_OF_ASC_NODE":249.7887,"ARG_OF_PERICENTER":95.1563,"MEAN_ANOMALY":264.9782,"EPHEMERIS_TYPE":0,"CLASSIFICATION_TYPE":"U","NORAD_CAT_ID":56047,"ELEMENT_SET_NO":999,"REV_AT_EPOCH":14507,"BSTAR":-4.5014e-5,"MEAN_MOTION_DOT":-4.0e-8,"MEAN_MOTION_DDOT":0},{"OBJECT_NAME":"ONEWEB-0546","OBJECT_ID":"2023-043C","EPOCH":"2026-03-03T12:57:20.574144","MEAN_MOTION":13.16593295,"ECCENTRICITY":0.0001902,"INCLINATION":87.9004,"RA_OF_ASC_NODE":249.7886,"ARG_OF_PERICENTER":76.3791,"MEAN_ANOMALY":283.7551,"EPHEMERIS_TYPE":0,"CLASSIFICATION_TYPE":"U","NORAD_CAT_ID":56048,"ELEMENT_SET_NO":999,"REV_AT_EPOCH":14506,"BSTAR":-7.4702e-5,"MEAN_MOTION_DOT":-1.6e-7,"MEAN_MOTION_DDOT":0},{"OBJECT_NAME":"ONEWEB-0547","OBJECT_ID":"2023-043D","EPOCH":"2026-03-03T12:01:27.693408","MEAN_MOTION":13.21824008,"ECCENTRICITY":0.00016985,"INCLINATION":87.9166,"RA_OF_ASC_NODE":265.0485,"ARG_OF_PERICENTER":93.8567,"MEAN_ANOMALY":266.2762,"EPHEMERIS_TYPE":0,"CLASSIFICATION_TYPE":"U","NORAD_CAT_ID":56049,"ELEMENT_SET_NO":999,"REV_AT_EPOCH":14426,"BSTAR":8.0524324e-5,"MEAN_MOTION_DOT":4.6e-7,"MEAN_MOTION_DDOT":0},{"OBJECT_NAME":"ONEWEB-0548","OBJECT_ID":"2023-043E","EPOCH":"2026-03-03T13:32:40.576992","MEAN_MOTION":13.16591915,"ECCENTRICITY":0.0001113,"INCLINATION":87.8996,"RA_OF_ASC_NODE":249.7834,"ARG_OF_PERICENTER":95.8412,"MEAN_ANOMALY":264.2846,"EPHEMERIS_TYPE":0,"CLASSIFICATION_TYPE":"U","NORAD_CAT_ID":56050,"ELEMENT_SET_NO":999,"REV_AT_EPOCH":14506,"BSTAR":0.00016098,"MEAN_MOTION_DOT":7.4e-7,"MEAN_MOTION_DDOT":0},{"OBJECT_NAME":"ONEWEB-0549","OBJECT_ID":"2023-043F","EPOCH":"2026-03-03T15:28:49.899072","MEAN_MOTION":13.21826096,"ECCENTRICITY":0.0001805,"INCLINATION":87.9165,"RA_OF_ASC_NODE":265.0319,"ARG_OF_PERICENTER":95.1054,"MEAN_ANOMALY":265.0286,"EPHEMERIS_TYPE":0,"CLASSIFICATION_TYPE":"U","NORAD_CAT_ID":56051,"ELEMENT_SET_NO":999,"REV_AT_EPOCH":14428,"BSTAR":6.4824e-5,"MEAN_MOTION_DOT":4.0e-7,"MEAN_MOTION_DDOT":0},{"OBJECT_NAME":"ONEWEB-0550","OBJECT_ID":"2023-043G","EPOCH":"2026-03-03T15:09:50.286528","MEAN_MOTION":13.21823974,"ECCENTRICITY":0.0001488,"INCLINATION":87.9167,"RA_OF_ASC_NODE":265.0296,"ARG_OF_PERICENTER":89.6321,"MEAN_ANOMALY":270.4984,"EPHEMERIS_TYPE":0,"CLASSIFICATION_TYPE":"U","NORAD_CAT_ID":56052,"ELEMENT_SET_NO":999,"REV_AT_EPOCH":14428,"BSTAR":-8.4496e-5,"MEAN_MOTION_DOT":-2.2e-7,"MEAN_MOTION_DDOT":0},{"OBJECT_NAME":"ONEWEB-0551","OBJECT_ID":"2023-043H","EPOCH":"2026-03-03T15:55:45.643872","MEAN_MOTION":13.15548021,"ECCENTRICITY":0.0001814,"INCLINATION":87.8944,"RA_OF_ASC_NODE":280.2998,"ARG_OF_PERICENTER":94.2405,"MEAN_ANOMALY":265.8933,"EPHEMERIS_TYPE":0,"CLASSIFICATION_TYPE":"U","NORAD_CAT_ID":56053,"ELEMENT_SET_NO":999,"REV_AT_EPOCH":14252,"BSTAR":0.00050294,"MEAN_MOTION_DOT":2.02e-6,"MEAN_MOTION_DDOT":0},{"OBJECT_NAME":"ONEWEB-0552","OBJECT_ID":"2023-043J","EPOCH":"2026-03-03T15:02:45.398112","MEAN_MOTION":13.21825449,"ECCENTRICITY":0.0001579,"INCLINATION":87.9164,"RA_OF_ASC_NODE":265.0391,"ARG_OF_PERICENTER":100.7295,"MEAN_ANOMALY":259.4017,"EPHEMERIS_TYPE":0,"CLASSIFICATION_TYPE":"U","NORAD_CAT_ID":56054,"ELEMENT_SET_NO":999,"REV_AT_EPOCH":14428,"BSTAR":0.00010999,"MEAN_MOTION_DOT":5.8e-7,"MEAN_MOTION_DDOT":0},{"OBJECT_NAME":"ONEWEB-0553","OBJECT_ID":"2023-043K","EPOCH":"2026-03-03T13:06:27.394560","MEAN_MOTION":13.16592976,"ECCENTRICITY":0.0001585,"INCLINATION":87.9,"RA_OF_ASC_NODE":249.7903,"ARG_OF_PERICENTER":80.7175,"MEAN_ANOMALY":279.4135,"EPHEMERIS_TYPE":0,"CLASSIFICATION_TYPE":"U","NORAD_CAT_ID":56055,"ELEMENT_SET_NO":999,"REV_AT_EPOCH":14507,"BSTAR":-8.2526e-5,"MEAN_MOTION_DOT":-1.9e-7,"MEAN_MOTION_DDOT":0},{"OBJECT_NAME":"ONEWEB-0554","OBJECT_ID":"2023-043L","EPOCH":"2026-03-03T12:48:12.888000","MEAN_MOTION":13.16593345,"ECCENTRICITY":0.00013,"INCLINATION":87.8998,"RA_OF_ASC_NODE":249.8031,"ARG_OF_PERICENTER":91.0925,"MEAN_ANOMALY":269.0355,"EPHEMERIS_TYPE":0,"CLASSIFICATION_TYPE":"U","NORAD_CAT_ID":56056,"ELEMENT_SET_NO":999,"REV_AT_EPOCH":14505,"BSTAR":-4.3266e-5,"MEAN_MOTION_DOT":-4.0e-8,"MEAN_MOTION_DDOT":0},{"OBJECT_NAME":"ONEWEB-0555","OBJECT_ID":"2023-043M","EPOCH":"2026-03-03T13:42:56.500128","MEAN_MOTION":13.16593118,"ECCENTRICITY":0.0001707,"INCLINATION":87.9,"RA_OF_ASC_NODE":249.7805,"ARG_OF_PERICENTER":74.5972,"MEAN_ANOMALY":285.5347,"EPHEMERIS_TYPE":0,"CLASSIFICATION_TYPE":"U","NORAD_CAT_ID":56057,"ELEMENT_SET_NO":999,"REV_AT_EPOCH":14506,"BSTAR":0.00013232,"MEAN_MOTION_DOT":6.3e-7,"MEAN_MOTION_DDOT":0},{"OBJECT_NAME":"ONEWEB-0557","OBJECT_ID":"2023-043N","EPOCH":"2026-03-03T12:14:01.021920","MEAN_MOTION":13.16593326,"ECCENTRICITY":0.00010021,"INCLINATION":87.9,"RA_OF_ASC_NODE":249.8043,"ARG_OF_PERICENTER":39.2135,"MEAN_ANOMALY":320.9069,"EPHEMERIS_TYPE":0,"CLASSIFICATION_TYPE":"U","NORAD_CAT_ID":56058,"ELEMENT_SET_NO":999,"REV_AT_EPOCH":14505,"BSTAR":0.00033239074,"MEAN_MOTION_DOT":1.4e-6,"MEAN_MOTION_DDOT":0},{"OBJECT_NAME":"ONEWEB-0558","OBJECT_ID":"2023-043P","EPOCH":"2026-03-03T14:53:16.353024","MEAN_MOTION":13.2182577,"ECCENTRICITY":0.0002074,"INCLINATION":87.9166,"RA_OF_ASC_NODE":265.0331,"ARG_OF_PERICENTER":97.9433,"MEAN_ANOMALY":262.1937,"EPHEMERIS_TYPE":0,"CLASSIFICATION_TYPE":"U","NORAD_CAT_ID":56059,"ELEMENT_SET_NO":999,"REV_AT_EPOCH":14429,"BSTAR":0.00012397,"MEAN_MOTION_DOT":6.4e-7,"MEAN_MOTION_DDOT":0},{"OBJECT_NAME":"ONEWEB-0559","OBJECT_ID":"2023-043Q","EPOCH":"2026-03-03T14:36:39.602880","MEAN_MOTION":13.21827827,"ECCENTRICITY":0.0001693,"INCLINATION":87.9167,"RA_OF_ASC_NODE":265.0288,"ARG_OF_PERICENTER":101.2906,"MEAN_ANOMALY":258.8418,"EPHEMERIS_TYPE":0,"CLASSIFICATION_TYPE":"U","NORAD_CAT_ID":56060,"ELEMENT_SET_NO":999,"REV_AT_EPOCH":14430,"BSTAR":0.00012098,"MEAN_MOTION_DOT":6.3e-7,"MEAN_MOTION_DDOT":0},{"OBJECT_NAME":"ONEWEB-0566","OBJECT_ID":"2023-043R","EPOCH":"2026-03-03T14:27:12.543264","MEAN_MOTION":13.21826196,"ECCENTRICITY":0.0001813,"INCLINATION":87.9166,"RA_OF_ASC_NODE":265.0295,"ARG_OF_PERICENTER":99.3444,"MEAN_ANOMALY":260.7895,"EPHEMERIS_TYPE":0,"CLASSIFICATION_TYPE":"U","NORAD_CAT_ID":56061,"ELEMENT_SET_NO":999,"REV_AT_EPOCH":14428,"BSTAR":0.00012421,"MEAN_MOTION_DOT":6.4e-7,"MEAN_MOTION_DDOT":0}]
