ONEWEB-0720             
1 55835U 23029AR  26062.73818935  .00000045  00000+0  80442-4 0  9992
2 55835  87.9237 325.9857 0001675  90.7288 269.4036 13.19725114144931
ONEWEB-0537             
1 56046U 23043A   26062.55880468 -.00000237  00000+0 -65415-3 0  9990
2 56046  87.8999 249.7847 0001699  88.8375 271.2951 13.16593976145061
ONEWEB-0538             
1 56047U 23043B   26062.55248749 -.00000004  00000+0 -45014-4 0  9997
2 56047  87.8997 249.7887 0001872  95.1563 264.9782 13.16593337145070
ONEWEB-0546             
1 56048U 23043C   26062.53982146 -.00000016  00000+0 -74702-4 0  9991
2 56048  87.9004 249.7886 0001902  76.3791 283.7551 13.16593295145063
ONEWEB-0547             
1 56049U 23043D   26062.50101497  .00000046  00000+0  80524-4 0  9991
2 56049  87.9166 265.0485 0001698  93.8567 266.2762 13.21824008144262
ONEWEB-0548             
1 56050U 23043E   26062.56435853  .00000074  00000+0  16098-3 0  9990
2 56050  87.8996 249.7834 0001113  95.8412 264.2846 13.16591915145066
ONEWEB-0549             
1 56051U 23043F   26062.64502198  .00000040  00000+0  64824-4 0  9991
2 56051  87.9165 265.0319 0001805  95.1054 265.0286 13.21826096144285
ONEWEB-0550             
1 56052U 23043G   26062.63183202 -.00000022  00000+0 -84496-4 0  9991
2 56052  87.9167 265.0296 0001488  89.6321 270.4984 13.21823974144281
ONEWEB-0551             
1 56053U 23043H   26062.66372273  .00000202  00000+0  50294-3 0  9999
2 56053  87.8944 280.2998 0001814  94.2405 265.8933 13.15548021142527
ONEWEB-0552             
1 56054U 23043J   26062.62691433  .00000058  00000+0  10999-3 0  9995
2 56054  87.9164 265.0391 0001579 100.7295 259.4017 13.21825449144285
ONEWEB-0553             
1 56055U 23043K   26062.54615040 -.00000019  00000+0 -82526-4 0  9992
2 56055  87.9000 249.7903 0001585  80.7175 279.4135 13.16592976145075
ONEWEB-0554             
1 56056U 23043L   26062.53348250 -.00000004  00000+0 -43266-4 0  9990
2 56056  87.8998 249.8031 0001300  91.0925 269.0355 13.16593345145055
ONEWEB-0555             
1 56057U 23043M   26062.57148727  .00000063  00000+0  13232-3 0  9994
2 56057  87.9000 249.7805 0001707  74.5972 285.5347 13.16593118145061
ONEWEB-0557             
1 56058U 23043N   26062.50973405  .00000140  00000+0  33239-3 0  9992
2 56058  87.9000 249.8043 0001002  39.2135 320.9069 13.16593326145059
ONEWEB-0558             
1 56059U 23043P   26062.62032816  .00000064  00000+0  12397-3 0  9995
2 56059  87.9166 265.0331 0002074  97.9433 262.1937 13.21825770144298
ONEWEB-0559             
1 56060U 23043Q   26062.60879170  .00000063  00000+0  12098-3 0  9994
2 56060  87.9167 265.0288 0001693 101.2906 258.8418 13.21827827144305
ONEWEB-0566             
1 56061U 23043R   26062.60222851  .00000064  00000+0  12421-3 0  9994
2 56061  87.9166 265.0295 0001813  99.3444 260.7895 13.21826196144287
